{"type": "FeatureCollection", "features": [ {"type": "Feature", "properties": {"norad_id": 34077, "name": "IRIDIUM 33 DEB", "group": "iridium-33-debris", "lat": 43.72377923911484, "lon": 57.39726373560857, "alt_km": 667.0239186992312, "timestamp": "2025-12-07T05:38:10.288681+00:00", "meta": {"OBJECT_NAME": "IRIDIUM 33 DEB", "OBJECT_ID": "1997-051CL", "EPOCH": "2025-12-06T15:16:38.364096", "MEAN_MOTION": 14.64696477, "ECCENTRICITY": 0.00107486, "INCLINATION": 86.3868, "RA_OF_ASC_NODE": 54.1959, "ARG_OF_PERICENTER": 58.7465, "MEAN_ANOMALY": 72.5173, "EPHEMERIS_TYPE": 0, "CLASSIFICATION_TYPE": "U", "NORAD_CAT_ID": 34077, "ELEMENT_SET_NO": 999, "REV_AT_EPOCH": 88243, "BSTAR": 0.0029940865, "MEAN_MOTION_DOT": 0.00015987, "MEAN_MOTION_DDOT": 0}, "tle": {"line1": "1 34077U 97051CL  25340.63655514  .00015987  00000+0  29941-2 0  9998", "line2": "2 34077  86.3868  54.1959 0010748  58.7465  72.5173 14.64696477882434"}}, "geometry": {"type": "Point", "coordinates": [57.39726373560857, 43.72377923911484]}}, {"type": "Feature", "properties": {"norad_id": 34079, "name": "IRIDIUM 33 DEB", "group": "iridium-33-debris", "lat": 26.708470822342957, "lon": 12.991862637310339, "alt_km": 613.5407782023576, "timestamp": "2025-12-07T05:38:10.288692+00:00", "meta": {"OBJECT_NAME": "IRIDIUM 33 DEB", "OBJECT_ID": "1997-051CN", "EPOCH": "2025-12-06T13:52:57.319680", "MEAN_MOTION": 14.83289985, "ECCENTRICITY": 0.00063527, "INCLINATION": 86.377, "RA_OF_ASC_NODE": 11.4634, "ARG_OF_PERICENTER": 27.2325, "MEAN_ANOMALY": 96.842, "EPHEMERIS_TYPE": 0, "CLASSIFICATION_TYPE": "U", "NORAD_CAT_ID": 34079, "ELEMENT_SET_NO": 999, "REV_AT_EPOCH": 88886, "BSTAR": 0.0027996652, "MEAN_MOTION_DOT": 0.00022987, "MEAN_MOTION_DDOT": 0}, "tle": {"line1": "1 34079U 97051CN  25340.57844120  .00022987  00000+0  27997-2 0  9993", "line2": "2 34079  86.3770  11.4634 0006352  27.2325  96.8420 14.83289985888866"}}, "geometry": {"type": "Point", "coordinates": [12.991862637310339, 26.708470822342957]}}, {"type": "Feature", "properties": {"norad_id": 34088, "name": "IRIDIUM 33 DEB", "group": "iridium-33-debris", "lat": -35.39562387004233, "lon": 30.67858580118282, "alt_km": 603.4766947543412, "timestamp": "2025-12-07T05:38:10.288702+00:00", "meta": {"OBJECT_NAME": "IRIDIUM 33 DEB", "OBJECT_ID": "1997-051CX", "EPOCH": "2025-12-06T15:49:52.516704", "MEAN_MOTION": 14.909456, "ECCENTRICITY": 0.00052368, "INCLINATION": 86.3851, "RA_OF_ASC_NODE": 33.5172, "ARG_OF_PERICENTER": 198.8433, "MEAN_ANOMALY": 280.3805, "EPHEMERIS_TYPE": 0, "CLASSIFICATION_TYPE": "U", "NORAD_CAT_ID": 34088, "ELEMENT_SET_NO": 999, "REV_AT_EPOCH": 88651, "BSTAR": 0.0043418715, "MEAN_MOTION_DOT": 0.00043099, "MEAN_MOTION_DDOT": 0}, "tle": {"line1": "1 34088U 97051CX  25340.65963561  .00043099  00000+0  43419-2 0  9997", "line2": "2 34088  86.3851  33.5172 0005236 198.8433 280.3805 14.90945600886511"}}, "geometry": {"type": "Point", "coordinates": [30.67858580118282, -35.39562387004233]}}, {"type": "Feature", "properties": {"norad_id": 34091, "name": "IRIDIUM 33 DEB", "group": "iridium-33-debris", "lat": -18.121057882495442, "lon": 68.15537856185713, "alt_km": 610.3365121977004, "timestamp": "2025-12-07T05:38:10.288712+00:00", "meta": {"OBJECT_NAME": "IRIDIUM 33 DEB", "OBJECT_ID": "1997-051DA", "EPOCH": "2025-12-06T11:52:54.870528", "MEAN_MOTION": 14.81097968, "ECCENTRICITY": 0.00331225, "INCLINATION": 86.3424, "RA_OF_ASC_NODE": 69.6932, "ARG_OF_PERICENTER": 315.6855, "MEAN_ANOMALY": 44.1716, "EPHEMERIS_TYPE": 0, "CLASSIFICATION_TYPE": "U", "NORAD_CAT_ID": 34091, "ELEMENT_SET_NO": 999, "REV_AT_EPOCH": 87774, "BSTAR": 0.0094887545, "MEAN_MOTION_DOT": 0.00075084, "MEAN_MOTION_DDOT": 0}, "tle": {"line1": "1 34091U 97051DA  25340.49507952  .00075084  00000+0  94888-2 0  9996", "line2": "2 34091  86.3424  69.6932 0033122 315.6855  44.1716 14.81097968877744"}}, "geometry": {"type": "Point", "coordinates": [68.15537856185713, -18.121057882495442]}}, {"type": "Feature", "properties": {"norad_id": 34097, "name": "IRIDIUM 33 DEB", "group": "iridium-33-debris", "lat": 75.3290151618018, "lon": 18.54436541932914, "alt_km": 735.092291019243, "timestamp": "2025-12-07T05:38:10.288722+00:00", "meta": {"OBJECT_NAME": "IRIDIUM 33 DEB", "OBJECT_ID": "1997-051DG", "EPOCH": "2025-12-06T12:33:02.637216", "MEAN_MOTION": 14.34704605, "ECCENTRICITY": 0.00832985, "INCLINATION": 86.1999, "RA_OF_ASC_NODE": 4.1517, "ARG_OF_PERICENTER": 22.3906, "MEAN_ANOMALY": 338.0891, "EPHEMERIS_TYPE": 0, "CLASSIFICATION_TYPE": "U", "NORAD_CAT_ID": 34097, "ELEMENT_SET_NO": 999, "REV_AT_EPOCH": 87030, "BSTAR": 0.002279274, "MEAN_MOTION_DOT": 6.729e-05, "MEAN_MOTION_DDOT": 0}, "tle": {"line1": "1 34097U 97051DG  25340.52294719  .00006729  00000+0  22793-2 0  9996", "line2": "2 34097  86.1999   4.1517 0083298  22.3906 338.0891 14.34704605870301"}}, "geometry": {"type": "Point", "coordinates": [18.54436541932914, 75.3290151618018]}}, {"type": "Feature", "properties": {"norad_id": 34145, "name": "IRIDIUM 33 DEB", "group": "iridium-33-debris", "lat": -16.337205152079008, "lon": 156.0911520630794, "alt_km": 752.3860754588522, "timestamp": "2025-12-07T05:38:10.288732+00:00", "meta": {"OBJECT_NAME": "IRIDIUM 33 DEB", "OBJECT_ID": "1997-051DY", "EPOCH": "2025-12-06T10:25:04.617408", "MEAN_MOTION": 14.42222386, "ECCENTRICITY": 0.0055493, "INCLINATION": 86.2109, "RA_OF_ASC_NODE": 335.3346, "ARG_OF_PERICENTER": 113.8958, "MEAN_ANOMALY": 246.807, "EPHEMERIS_TYPE": 0, "CLASSIFICATION_TYPE": "U", "NORAD_CAT_ID": 34145, "ELEMENT_SET_NO": 999, "REV_AT_EPOCH": 87547, "BSTAR": 0.0018632414, "MEAN_MOTION_DOT": 6.274e-05, "MEAN_MOTION_DDOT": 0}, "tle": {"line1": "1 34145U 97051DY  25340.43408122  .00006274  00000+0  18632-2 0  9997", "line2": "2 34145  86.2109 335.3346 0055493 113.8958 246.8070 14.42222386875475"}}, "geometry": {"type": "Point", "coordinates": [156.0911520630794, -16.337205152079008]}}, {"type": "Feature", "properties": {"norad_id": 34146, "name": "IRIDIUM 33 DEB", "group": "iridium-33-debris", "lat": 59.253059861179466, "lon": -1.4940293511987908, "alt_km": 741.0937244459747, "timestamp": "2025-12-07T05:38:10.288741+00:00", "meta": {"OBJECT_NAME": "IRIDIUM 33 DEB", "OBJECT_ID": "1997-051DZ", "EPOCH": "2025-12-06T11:50:11.529600", "MEAN_MOTION": 14.4898423, "ECCENTRICITY": 0.00250615, "INCLINATION": 86.2832, "RA_OF_ASC_NODE": 352.5599, "ARG_OF_PERICENTER": 243.9958, "MEAN_ANOMALY": 269.256, "EPHEMERIS_TYPE": 0, "CLASSIFICATION_TYPE": "U", "NORAD_CAT_ID": 34146, "ELEMENT_SET_NO": 999, "REV_AT_EPOCH": 88016, "BSTAR": 0.0017576826, "MEAN_MOTION_DOT": 6.708e-05, "MEAN_MOTION_DDOT": 0}, "tle": {"line1": "1 34146U 97051DZ  25340.49318900  .00006708  00000+0  17577-2 0  9997", "line2": "2 34146  86.2832 352.5599 0025061 243.9958 269.2560 14.48984230880167"}}, "geometry": {"type": "Point", "coordinates": [-1.4940293511987908, 59.253059861179466]}}, {"type": "Feature", "properties": {"norad_id": 34159, "name": "IRIDIUM 33 DEB", "group": "iridium-33-debris", "lat": -17.074528332740588, "lon": 49.465981386060704, "alt_km": 753.3269924688038, "timestamp": "2025-12-07T05:38:10.288751+00:00", "meta": {"OBJECT_NAME": "IRIDIUM 33 DEB", "OBJECT_ID": "1997-051EN", "EPOCH": "2025-12-06T11:21:03.034656", "MEAN_MOTION": 14.38470659, "ECCENTRICITY": 0.00261526, "INCLINATION": 86.3518, "RA_OF_ASC_NODE": 50.9135, "ARG_OF_PERICENTER": 309.9003, "MEAN_ANOMALY": 49.9896, "EPHEMERIS_TYPE": 0, "CLASSIFICATION_TYPE": "U", "NORAD_CAT_ID": 34159, "ELEMENT_SET_NO": 999, "REV_AT_EPOCH": 87869, "BSTAR": 0.00083149264, "MEAN_MOTION_DOT": 2.566e-05, "MEAN_MOTION_DDOT": 0}, "tle": {"line1": "1 34159U 97051EN  25340.47295179  .00002566  00000+0  83149-3 0  9998", "line2": "2 34159  86.3518  50.9135 0026152 309.9003  49.9896 14.38470659878698"}}, "geometry": {"type": "Point", "coordinates": [49.465981386060704, -17.074528332740588]}}, {"type": "Feature", "properties": {"norad_id": 34350, "name": "IRIDIUM 33 DEB", "group": "iridium-33-debris", "lat": -55.344353792761616, "lon": -169.47351102806024, "alt_km": 746.0092694309824, "timestamp": "2025-12-07T05:38:10.288761+00:00", "meta": {"OBJECT_NAME": "IRIDIUM 33 DEB", "OBJECT_ID": "1997-051ES", "EPOCH": "2025-12-06T14:11:52.830816", "MEAN_MOTION": 14.45366247, "ECCENTRICITY": 0.00221806, "INCLINATION": 86.328, "RA_OF_ASC_NODE": 5.4752, "ARG_OF_PERICENTER": 154.4989, "MEAN_ANOMALY": 335.7488, "EPHEMERIS_TYPE": 0, "CLASSIFICATION_TYPE": "U", "NORAD_CAT_ID": 34350, "ELEMENT_SET_NO": 999, "REV_AT_EPOCH": 88204, "BSTAR": 0.00058263212, "MEAN_MOTION_DOT": 2.073e-05, "MEAN_MOTION_DDOT": 0}, "tle": {"line1": "1 34350U 97051ES  25340.59158369  .00002073  00000+0  58263-3 0  9995", "line2": "2 34350  86.3280   5.4752 0022180 154.4989 335.7488 14.45366247882042"}}, "geometry": {"type": "Point", "coordinates": [-169.47351102806024, -55.344353792761616]}}, {"type": "Feature", "properties": {"norad_id": 34366, "name": "IRIDIUM 33 DEB", "group": "iridium-33-debris", "lat": 31.7496190620815, "lon": 53.95840167620023, "alt_km": 719.9349291819071, "timestamp": "2025-12-07T05:38:10.288772+00:00", "meta": {"OBJECT_NAME": "IRIDIUM 33 DEB", "OBJECT_ID": "1997-051FJ", "EPOCH": "2025-12-06T15:13:30.910656", "MEAN_MOTION": 14.5397417, "ECCENTRICITY": 0.00220073, "INCLINATION": 86.3704, "RA_OF_ASC_NODE": 51.9683, "ARG_OF_PERICENTER": 159.1934, "MEAN_ANOMALY": 331.9723, "EPHEMERIS_TYPE": 0, "CLASSIFICATION_TYPE": "U", "NORAD_CAT_ID": 34366, "ELEMENT_SET_NO": 999, "REV_AT_EPOCH": 88093, "BSTAR": 0.0019702694, "MEAN_MOTION_DOT": 8.348e-05, "MEAN_MOTION_DDOT": 0}, "tle": {"line1": "1 34366U 97051FJ  25340.63438554  .00008348  00000+0  19703-2 0  9990", "line2": "2 34366  86.3704  51.9683 0022007 159.1934 331.9723 14.53974170880934"}}, "geometry": {"type": "Point", "coordinates": [53.95840167620023, 31.7496190620815]}}]}